location,country_id,city,state,lat,lng
1,2,Regina,SK,50.44876,-104.61731
2,2,Vaudreuil-Dorion,QC,45.39715089999999,-74.0254577
3,2,Calgary,AB,51.0534234,-114.0625892
4,2,Iqaluit,NU,63.74944,-68.521857
5,2,Lethbridge,AB,49.694285,-112.85156200000002
6,2,Pickering,ON,43.835765,-79.090576
7,2,Toronto,ON,43.6534817,-79.38393470000001
8,2,Surrey,BC,49.1913033,-122.8491439
9,2,100 Mile House,BC,51.6427866,-121.2956943
10,2,Laval,QC,45.575780200000004,-73.7530656
11,2,Saskatoon,SK,52.131802,-106.66076699999999
12,2,Markham,ON,43.85637070000001,-79.3376825
13,2,Quebec City,QC,46.8259601,-71.23522259999999
14,2,Bedford,QC,45.474578799999996,-73.62421040000001
15,2,Mississauga,ON,43.589623100000004,-79.64438790000001
16,2,Ottawa,ON,45.421106,-75.690308
17,2,Vancouver,BC,49.2608724,-123.11395290000002
18,2,Montréal,QC,45.4972159,-73.61036419999999
19,2,Sydney,NS,46.137977,-60.194092000000005
20,2,Waterloo,ON,43.465269899999996,-80.52229609999999
21,2,Burnaby,BC,49.2433804,-122.9725459
22,2,St. John's,NL,47.561701,-52.715149
23,2,Brampton,ON,43.6858146,-79.7599337
24,2,Halifax,NS,44.648618,-63.58594870000001
25,2,Windsor,ON,42.317099,-83.0353434
26,2,Woodbridge,ON,43.7848982,-79.59238549999999
27,2,Aldouane,NB,46.7071305,-64.8878256
28,2,Stoney Creek,ON,43.2167722,-79.75675079999999
29,2,Tiverton,ON,44.267641,-81.54336500000001
30,2,Delta,BC,49.0846258,-123.05793840000001
31,2,Westmount,QC,45.485732899999995,-73.5963951
32,2,Richmond,BC,49.163168,-123.13741399999999
33,2,Edmonton,AB,53.535410999999996,-113.50799599999999
34,2,Bedford,NS,44.7303901,-63.6582365
35,2,Milton,ON,43.513671,-79.882817
36,2,North York,ON,43.754326299999995,-79.449117
37,2,Aylmer,ON,42.773227,-80.98365799999999
38,2,Peel,ON,43.684379299999996,-79.6649227
39,2,Coquitlam,BC,49.284295799999995,-122.79328100000001
40,2,Saint-Césaire,QC,45.410502,-73.00415
41,2,Haines Junction,YT,60.7527212,-137.5100384
42,2,Valcourt,QC,45.4937347,-72.3151116
43,2,Concord,ON,43.8006713,-79.4990762
44,2,Burlington,ON,43.3248924,-79.7966835
45,2,St. Anthony,NL,51.3653968,-55.591933499999996
46,2,Kitchener,ON,43.451291,-80.49278149999999
47,2,Thunder Bay,ON,48.406414,-89.259796
48,2,Hamilton,ON,43.2560802,-79.8728583
49,2,Port Coquitlam,BC,49.262164299999995,-122.78054250000001
50,2,Scarborough,ON,43.773077,-79.257774
51,2,Moncton,NB,46.097995000000004,-64.80011
52,2,Guelph,ON,43.5460516,-80.2493276
53,2,Vanderhoof,BC,54.0175289,-124.00766270000001
54,2,Saint-Laurent,QC,45.508877399999996,-73.6875187
55,2,Saint John,NB,45.278752000000004,-66.058044
56,2,Oakville,ON,43.447435999999996,-79.66667199999999
57,2,Sparwood,BC,49.7332695,-114.8858477
58,2,Newmarket,ON,44.056258,-79.461708
59,2,Pointe-Claire,QC,45.4566767,-73.8067442
60,2,Lakeshore,ON,42.3038299,-82.8189267
61,2,Whitehorse,YT,60.721571,-135.054932
62,2,Vaughan,ON,43.7941544,-79.52680229999999
63,2,Mary River,NU,71.32766529999999,-79.3760236
64,2,Grimsby,ON,43.1932094,-79.5606922
65,2,Bowmanville,ON,43.912299499999996,-78.68916750000001
66,2,Victoria,BC,48.4283182,-123.36495330000001
67,2,Etobicoke,ON,43.6435559,-79.56563259999999
68,2,Waterdown,ON,43.3314156,-79.8956803
69,2,York,ON,43.6896191,-79.479188
70,2,Winnipeg,MB,49.8955367,-97.1384584
71,2,Dieppe,NB,46.0945258,-64.7354772
72,2,Kelowna,BC,49.887931,-119.49616200000001
73,2,St. Catharines,ON,43.1579812,-79.2441003
74,2,Strathroy,ON,42.9561795,-81.62202020000001
75,2,Wainwright,AB,52.8374281,-110.8612063
76,2,London,ON,42.9836747,-81.2496068
77,2,Stellarton,NS,45.5574527,-62.659113899999994
78,2,Kirkland,QC,45.4529194,-73.8647559
79,2,Peterborough,ON,44.3048009,-78.31994959999999
80,2,Hiawatha,ON,45.48140720000001,-75.5366323
81,2,Brantford,ON,43.1408157,-80.2631733
82,2,Greater Sudbury,ON,46.49272,-80.99121099999999
83,2,Caledon,ON,43.827060100000004,-79.9061037
84,2,Saint-Hubert,QC,45.5042755,-73.42169759999999
85,2,Orangeville,ON,43.9193171,-80.0973754
86,2,Charlottetown,PE,46.234953000000004,-63.132934999999996
87,2,Boucherville,QC,45.60501970000001,-73.45261440000002
88,2,Richmond Hill,ON,43.880078000000005,-79.439392
89,2,Langley,BC,49.098648700000005,-122.65923259999998
90,2,Pemberton,BC,50.3203804,-122.8080783
91,2,Châteauguay,QC,45.3619066,-73.7524319
92,2,Dorval,QC,45.44530820000001,-73.75108879999999
93,2,Dartmouth,NS,44.679970700000005,-63.57202320000001
94,2,Centretown,ON,45.4163403,-75.6942863
95,2,Belleville,ON,44.163326399999995,-77.3852556
96,2,Gatineau,QC,45.4841214,-75.6813728
97,2,Cambridge,ON,43.3600536,-80.3123023
98,2,Verdun,QC,45.459078000000005,-73.5731774
99,2,Stayner,ON,44.41946420000001,-80.09044509999998
100,2,Sherbrooke,QC,45.403271000000004,-71.889038
101,2,Fredericton,NB,45.966425,-66.645813
102,2,Longueuil,QC,45.5172382,-73.44674659999998
103,2,West Vancouver,BC,49.3311208,-123.1594791
104,2,St. Thomas,ON,42.779022,-81.1929882
105,2,Kirkland Lake,ON,48.154177000000004,-80.031281
106,2,Acheson,AB,53.545914100000005,-113.77157609999999
107,2,New Westminster,BC,49.2067726,-122.9108818
108,2,Midland,ON,44.750147,-79.885712
109,2,Kanata,ON,50.000678,-86.000977
110,2,Barrie,ON,44.389311299999996,-79.6901736
111,2,Essex,ON,42.1744783,-82.8215468
112,2,Niagara-on-the-Lake,ON,43.2556116,-79.07232640000001
113,2,Prince George,BC,53.912864500000005,-122.7453699
114,2,Georgetown,ON,43.6502652,-79.9036058
115,2,Venice,AB,54.69805600000001,-112.147222
116,2,Sioux Lookout,ON,50.113454700000005,-92.1962432
117,2,Ajax,ON,43.8505287,-79.02088140000001
118,2,Chatham-Kent,ON,42.41833,-82.08984170000001
119,2,Kitimat,BC,54.053557700000006,-128.6540519
120,2,North Battleford,SK,52.776185999999996,-108.300476
121,2,Ermineskin 138,AB,53.4577179,-113.50537800000001
122,2,Port Hope,ON,43.9515755,-78.2939704
123,2,Steinbach,MB,49.530557,-96.69341999999999
124,2,Westlock,AB,54.1525241,-113.8519902
125,2,Enterprise,NB,46.959120299999995,-67.3868254
126,2,Abbotsford,BC,49.0521162,-122.32947920000001
127,2,Blacks Harbour,NB,45.058501,-66.7900104
128,2,Creston,BC,49.0971526,-116.51297590000001
129,2,Chilliwack,BC,49.157677,-121.9514307
130,2,North Vancouver,BC,49.320713299999994,-123.0737831
131,2,Tecumseh,ON,42.3117951,-82.8861974
132,2,Greater Toronto Area,ON,43.7540261,-79.27596070000001
133,2,Bruxelles,MB,49.487322,-98.918504
134,2,Lucknow,ON,43.961847999999996,-81.5172512
135,2,Simcoe,ON,42.8372434,-80.3039146
136,2,Mont-Saint-Hilaire,QC,45.5623512,-73.1918864
137,2,Salmon Arm,BC,50.7005059,-119.27905290000001
138,2,Middleton,NS,44.942431,-65.0680746
139,2,Norfolk County,ON,42.797153200000004,-80.4538365
140,2,Stony Rapids,SK,59.259775,-105.8050178
141,2,Iroquois,ON,44.849283500000006,-75.31510829999999
142,2,St. George,NB,45.1275604,-66.8269836
143,2,Dorchester,ON,42.9886863,-81.0586953
144,2,Kingston,ON,44.230686999999996,-76.481323
145,2,Revelstoke,BC,50.998045,-118.1956709
146,2,Whistler,BC,50.1171903,-122.95430220000001
147,2,Buick,BC,56.7584379,-121.2771396
148,2,Thompson,MB,55.743347,-97.86346400000001
149,2,Tilbury,ON,42.2593155,-82.43226820000001
150,2,Teeswater,ON,43.9981333,-81.28661290000001
151,2,Rexdale,ON,43.7213619,-79.5655129
152,2,Come By Chance,NL,47.845963399999995,-53.984436200000005
153,2,Ponoka,AB,52.671778700000004,-113.59943340000001
154,2,Petersburg,ON,43.4135333,-80.6051477
155,2,Airdrie,AB,51.28597,-114.01061999999999
156,2,Leduc,AB,53.2732252,-113.54943200000001
157,2,East York,ON,43.699971000000005,-79.33252
158,2,Pitt Meadows,BC,49.2207623,-122.6901534
159,2,Shawinigan,QC,46.5389609,-72.7467621
160,2,Tillsonburg,ON,42.859494,-80.7265015
161,2,Aldergrove,BC,49.0596635,-122.49223810000001
162,2,Kamloops,BC,50.6758269,-120.33941589999999
163,2,Metro Vancouver Regional District,BC,49.2618661,-122.9555509
164,2,Ingersoll,ON,43.037725,-80.88211
165,2,Labrador City,NL,52.9422944,-66.9177291
166,2,Bath,ON,44.1830254,-76.77565609999999
167,2,Terrace,BC,55.001251,-125.00244099999999
168,2,St. Isidore,ON,45.38561,-74.9057344
169,2,Saanichton,BC,48.5964295,-123.3913348
170,2,Ottawa West,ON,45.421106,-75.690308
171,2,Dollard-Des Ormeaux,QC,45.48423,-73.8064547
172,2,Campbellford,ON,44.3085912,-77.798084
173,2,Borden,ON,43.4423514,-80.4751159
174,2,Stouffville,ON,43.9708746,-79.2500689
175,2,Stratford,ON,43.370089899999996,-80.9818016
176,4,Sydney,NSW,-33.8548157,151.2164539
177,4,Altona North,VIC,-37.8378229,144.8342853
178,4,East Melbourne,VIC,-37.812498,144.9858851
179,4,Melbourne City Centre,VIC,-37.814217600000006,144.9631608
180,4,Canberra,ACT,-35.2975906,149.1012676
181,4,Melbourne,VIC,-37.814217600000006,144.9631608
182,4,Hawthorn East,VIC,-37.8313785,145.04997969999997
183,4,Gold Coast,QLD,-28.002373100000003,153.4145987
184,4,Adelaide Region,SA,-22.2146553,133.9362574
185,4,New South,Wales,-33.9175545,151.2291515
186,4,Brisbane,QLD,-27.468968199999996,153.02349909999998
187,4,Toowoomba,QLD,-27.5610193,151.953351
188,4,Macquarie Park,NSW,-33.7814961,151.1256747
189,4,Sydney Central Business District,NSW,-33.8816652,151.20532509999998
190,4,South Hobart,TAS,-42.8960515,147.3092219
191,4,Barangaroo,NSW,-33.861408399999995,151.20168769999998
192,4,Bella Vista,NSW,-33.7416936,150.95471830000002
193,4,Illawarra,NSW,-34.4614505,150.7904074
194,4,Newstead,QLD,-27.4453279,153.0444763
195,4,North Ryde,NSW,-33.797547200000004,151.127306
196,4,Beacon Hill,NSW,-33.751787,151.26008280000002
197,4,Parramatta,NSW,-33.8069697,151.0213625
198,4,Perth,WA,-31.952712100000003,115.86047959999999
199,4,Docklands,VIC,-37.81754229999999,144.9394923
200,4,North Sydney,NSW,-33.835451899999995,151.2083011
201,4,Botany,NSW,-33.947829,151.1990644
202,4,Seven Hills,NSW,-33.7760305,150.9427044
203,4,Sydney Western Suburbs,NSW,-33.9432094,151.1872575
204,4,Darwin,NT,-12.46044,130.8410469
205,4,Mount Cotton,QLD,-27.62,153.2183333
206,4,South,Australia,-30.534366499999997,135.6301212
207,4,Castle Hill,NSW,-33.7315318,151.0071718
208,4,North Lakes,QLD,-27.237822700000002,153.0183242
209,4,Fairfield,NSW,-33.8674403,150.8893104
210,4,City of Knox,VIC,-37.898453,145.26485630000002
211,4,Dandenong,VIC,-37.98749,145.21479230000003
212,4,Darlinghurst,NSW,-33.8783381,151.219225
213,4,South Yarra,VIC,-37.8377695,144.99185369999998
214,4,Auburn,NSW,-33.854570200000005,151.0255673
215,4,Ryde,NSW,-33.8015751,151.10461840000002
216,4,Surry Hills,NSW,-33.8845123,151.2100301
217,4,Mascot,NSW,-33.9289562,151.1951782
218,4,Rhodes,NSW,-33.8290589,151.08735780000004
219,4,Banyo,QLD,-27.3760218,153.07716340000002
220,4,Nundah,QLD,-27.4012298,153.06037890000002
221,4,Cheltenham,VIC,-37.9670081,145.05469509999998
222,4,Hills District,NSW,-33.7428695,151.082309
223,4,Toowong,QLD,-27.4857407,152.99159430000003
224,4,City of Boroondara,VIC,-37.826696500000004,145.0611952
225,4,Smithfield,NSW,-33.8478215,150.9408736
226,4,Collingwood,VIC,-37.802104,144.98813869999998
227,4,Townsville,QLD,-19.2569391,146.82395369999998
228,4,Paddington,NSW,-33.884157200000004,151.22727659999998
229,4,Doncaster,VIC,-37.7848299,145.1238431
230,4,St Leonards,NSW,-33.8225666,151.1923402
231,4,Clayton,VIC,-37.9173212,145.1304242
232,4,West Melbourne,VIC,-37.8106885,144.920404
233,4,Wynyard,TAS,-40.9875424,145.72822230000003
234,4,Keysborough,VIC,-38.005360700000004,145.1674069
235,4,Fairfield,VIC,-37.779193299999996,145.017005
236,4,Burwood,VIC,-37.85566,145.09844119999997
237,4,South Melbourne,VIC,-37.83346029999999,144.95701880000001
238,4,Sydney Inner Suburbs,NSW,-32.939481,151.66000280000003
239,4,Alexandria,NSW,-33.9091568,151.1921281
240,4,South Brisbane,QLD,-27.482134000000002,153.0223507
241,4,Silverwater,NSW,-33.1029115,151.56008569999997
242,4,Hobart,TAS,-42.8825088,147.3281233
243,4,Adelaide CBD,SA,-34.9334734,138.600575
244,4,Scoresby,VIC,-37.902578600000005,145.21830659999998
245,4,Brisbane Central Business District,QLD,-27.458837100000004,153.0275474
246,4,Gepps Cross,SA,-34.8423859,138.60442709999998
247,4,Linley Point,NSW,-33.8272222,151.15
248,4,Redfern,NSW,-33.8931044,151.20402919999998
249,4,Southbank,VIC,-37.825361799999996,144.96402030000002
250,4,Eight Mile Plains,QLD,-27.5779184,153.092299
251,4,Burnley,VIC,-37.8276223,145.00809119999997
252,4,Bondi,NSW,-33.893055600000004,151.2633333
253,4,Chippendale,NSW,-33.886329100000005,151.19982109999998
254,4,Ravenhall,VIC,-37.7754956,144.73663259999998
255,4,Geelong,VIC,-38.1492813,144.3598269
256,4,Gleniffer,NSW,-30.3816667,152.8844444
257,4,Rocklea,QLD,-27.5482033,153.0115871
258,4,Osborne Park,WA,-31.9033165,115.814291
259,4,Dingley,VIC,-37.975576200000006,145.12564780000002
260,4,Newcastle,NSW,-32.9272881,151.7812534
261,4,Pyrmont,NSW,-33.869214500000005,151.1923633
262,4,Strathfield,NSW,-33.8798176,151.0785246
263,4,The Rocks,NSW,-33.859992,151.2083216
264,4,Richmond,VIC,-37.820395500000004,145.00251530000003
265,4,Matraville,NSW,-33.9639325,151.2334198
266,4,Gladstone,QLD,-23.8431724,151.256132
267,4,Mulgrave,VIC,-37.9319869,145.18179880000002
268,4,Northern,Territory,-12.371312800000002,130.8684098
269,4,Pearce,WA,-31.6739604,116.0175435
270,4,Gregory,WA,-28.1945255,114.26426629999999
271,4,Campbellfield,VIC,-37.6641298,144.959583
272,4,Western,Australia,-25.230300500000002,121.0187246
273,4,Milton,NSW,-35.31697929999999,150.4375645
274,4,Fortitude Valley,QLD,-27.4562467,153.0358184
275,4,Port Hedland,WA,-20.894665,118.51987679999999
276,4,Williamtown,NSW,-32.815,151.84277780000002
277,4,Wollongong,NSW,-34.4243941,150.89385
278,4,Boddington,WA,-32.792141,116.42105819999999
279,4,Lyndhurst,VIC,-38.068538399999994,145.2307493
280,4,Pakenham,VIC,-38.0803615,145.4858119
281,4,Douglas Park,NSW,-34.19,150.7011111
282,4,Pymble,NSW,-33.7450185,151.1424708
283,4,Grafton,NSW,-29.69125,152.9333435
284,4,West Perth,WA,-31.9486588,115.841571
285,4,Pilbara,WA,-22.964202899999997,118.81233470000001
286,4,Lithgow,NSW,-33.3201229,150.1950254
287,4,Mount Waverley,VIC,-37.875263700000005,145.12812580000002
288,4,Spreyton,TAS,-41.2218021,146.3473314
289,4,Newtown,NSW,-33.8961132,151.18018930000002
290,4,Bundall,QLD,-28.0112822,153.40809119999997
291,4,Lindfield,NSW,-33.7802907,151.15958480000003
292,4,Blackburn North,VIC,-37.8053801,145.154324
293,4,Albury,NSW,-36.0804766,146.9162795
294,4,Frankston,VIC,-38.1444729,145.1268808
295,4,Henderson,WA,-32.1625849,115.77793419999999
296,4,Parkville,VIC,-37.7871148,144.9515533
297,4,Moree,NSW,-29.4617202,149.84071530000003
298,4,Alice Springs,NT,-23.6983884,133.8812885
299,4,Darling Downs,QLD,-27.117090500000003,150.89464080000002
300,4,Mornington Peninsula,VIC,-38.243315,145.08854319999998
301,4,Rosebery,NSW,-33.918586100000006,151.204692
302,4,Christmas Creek,QLD,-28.173939899999997,152.9915566
303,4,Warabrook,NSW,-32.8870387,151.70986509999997
304,4,Homebush,NSW,-33.860451,151.0806118
305,4,Inner West,NSW,-33.8899775,151.1453905
306,4,Old Guildford,NSW,-33.8636111,150.9844444
307,4,Edinburgh,SA,-34.71913789999999,138.6350042
308,4,Port Macquarie,NSW,-31.4299499,152.9103525
309,4,Perth Central Business District,WA,-31.955123200000003,115.86789080000001
310,4,Ravensthorpe,WA,-33.690132,120.15937720000001
311,4,Katoomba,NSW,-33.713759,150.3121633
312,4,Barton,ACT,-35.3072631,149.1404986
313,4,Williams Landing,VIC,-37.8700305,144.74696730000002
314,4,Maitland,NSW,-32.708177,151.5268437
315,4,Milton,QLD,-27.470019399999995,153.0037657
316,4,East Perth,WA,-31.954340999999996,115.87788940000002
317,4,Streaky Bay,SA,-32.7381247,134.6157554
318,4,Mandurah,WA,-32.6286505,115.63797520000001
319,4,Melbourne South Eastern Suburbs,VIC,-37.8262015,144.9499793
320,4,Beaconsfield,TAS,-41.198107799999995,146.8145469
321,4,Hopetoun,WA,-33.94672979999999,120.1249342
322,4,Chichester,NSW,-32.1985224,151.6177186
323,4,Deakin,VIC,-37.9824458,145.2108655
324,4,Dee Why,NSW,-33.7536635,151.2899954
325,4,Osterley,TAS,-42.34356,146.74136000000001
326,4,Northam,WA,-31.699163000000002,116.6648507
327,4,Tullamarine,VIC,-37.704658,144.87177319999998
328,4,Artarmon,NSW,-33.8094124,151.18576090000002
329,4,Goldfields,WA,-31.321006699999998,121.51285259999999
330,4,Hilton,SA,-34.932139299999996,138.56583669999998
331,4,Strathpine,QLD,-27.309986100000003,152.99053469999998
332,4,Dampier,WA,-20.6624798,116.71190130000001
333,4,Portland,VIC,-38.345623100000005,141.6042304
334,4,North Melbourne,VIC,-37.8076092,144.9423514
335,4,Success,WA,-32.1451437,115.84959690000001
336,4,Lane Cove West,NSW,-33.8119396,151.150078
337,4,Orchard Hills,NSW,-33.7816667,150.71777780000002
338,4,Bunbury,WA,-33.3267797,115.636698
339,4,Waurn Ponds,VIC,-38.2158244,144.30611930000003
340,4,Broadway,NSW,-34.70638889999999,149.0805556
341,4,Macquarie University,NSW,-33.7740328,151.11270919999998
342,4,Sunshine Coast,QLD,-26.5443222,153.0507705
343,4,South Perth,WA,-31.980966100000003,115.8639433
344,4,Fullarton,SA,-34.954047499999994,138.6263553
345,4,Port Melbourne,VIC,-37.83336129999999,144.9219203
346,4,Northgate,QLD,-27.3908162,153.06935259999997
347,4,Burleigh Heads,QLD,-28.1021343,153.4395799
348,4,Horsham,VIC,-36.7148099,142.2018105
349,4,Coburg,VIC,-37.744975200000006,144.9643314
350,4,Westmead,NSW,-33.80764979999999,150.98772649999998
351,4,Chatswood,NSW,-33.794479700000004,151.1818571
352,3,Akron,OH,41.083064,-81.518485
353,3,Hill AFB,UT,41.1227542,-111.97734399999999
354,3,San Francisco,CA,37.779026200000004,-122.4199061
355,3,Bloomington,IL,40.473107299999995,-88.9941403
356,3,Atlanta,GA,33.7489924,-84.3902644
357,3,Texas City,TX,29.396013,-94.9175485
358,3,Fremont,CA,37.548269700000006,-121.98857190000001
359,3,Weston,FL,26.1003392,-80.399513
360,3,Boulder,CO,40.0149856,-105.2705456
361,3,Brandon,FL,27.928464,-82.2880508
362,3,Boston,MA,42.3602534,-71.0582912
363,3,Waltham,MA,42.3756401,-71.2358004
364,3,Alexandria,VA,38.8051095,-77.0470229
365,3,Southington,CT,41.6005435,-72.8782941
366,3,Seattle,WA,47.6038321,-122.3300624
367,3,Irving,TX,32.829518300000004,-96.9442177
368,3,Carlsbad,CA,33.158093300000004,-117.3505966
369,3,Pleasant Prairie,WI,42.52731970000001,-87.8533517
370,3,Greenville,TX,33.1384488,-96.1108066
371,3,McAlester,OK,34.9334981,-95.7697934
372,3,Sanford,FL,28.8117297,-81.2680345
373,3,Washington,DC,38.8949924,-77.0365581
374,3,Marlborough,MA,42.3459271,-71.55228740000001
375,3,Bloomfield,NJ,40.806767,-74.1854226
376,3,New York,NY,40.7127281,-74.0060152
377,3,Santa Monica,CA,34.019470399999996,-118.4912273
378,3,Palo Alto,CA,37.44432929999999,-122.15984650000001
379,3,Beeville,TX,28.400831899999996,-97.74833120000001
380,3,North East,MD,39.5162234,-76.9382069
381,3,Falls Church,VA,38.882334,-77.17109140000001
382,3,Santa Clara,CA,37.2333253,-121.68463490000002
383,3,Post Falls,ID,47.7110106,-116.94808770000002
384,3,New Brunswick,NJ,40.4862174,-74.4518173
385,3,Fletcher,NC,35.430671200000006,-82.5012316
386,3,Los Angeles,CA,34.0536909,-118.24276599999999
387,3,Redmond,WA,47.6694141,-122.1238767
388,3,Delaware,OH,40.2986724,-83.067965
389,3,Draper,UT,40.5246711,-111.8638226
390,3,Chapel Hill,NC,35.9131542,-79.05578
391,3,York,PA,39.962398,-76.72739200000001
392,3,Palm Beach,FL,26.627979800000002,-80.44941740000002
393,3,Evanston,IL,42.0447388,-87.6930459
394,3,Morrisville,NC,35.824341,-78.8300321
395,3,Overland Park,KS,38.9742502,-94.6851702
396,3,Cambridge,MA,42.3750997,-71.1056157
397,3,Charlestown,MA,42.3778749,-71.06199570000001
398,3,Mountain View,CA,37.3893889,-122.0832101
399,3,Chicago,IL,41.875561600000005,-87.6244212
400,3,San Diego,CA,32.7174202,-117.16277279999998
401,3,Tallahassee,FL,30.4380832,-84.2809332
402,3,Sunrise,FL,26.1666888,-80.2787573
403,3,Jefferson City,MO,38.577359,-92.1724265
404,3,Bloomington,MN,44.832240500000005,-93.3204872
405,3,Chestertown,MD,39.2089986,-76.0666126
406,3,Hollywood,CA,34.0980031,-118.329523
407,3,New Orleans,LA,29.949932300000004,-90.0701156
408,3,Manassas,VA,38.750948799999996,-77.4752667
409,3,Portsmouth,NH,43.0702223,-70.7548621
410,3,Raymond,OH,40.3347799,-83.465758
411,3,Shelton,CT,41.3164856,-73.0931641
412,3,Roseville,MN,45.00607670000001,-93.1566107
413,3,Sunnyvale,CA,37.368830100000004,-122.03634960000001
414,3,Franklin,TN,35.925206,-86.86894190000001
415,3,Chippewa Falls,WI,44.9369054,-91.3929348
416,3,Dorado,PR,18.4552585,-66.08131170000001
417,3,Cincinnati,OH,39.1014537,-84.5124602
418,3,Orlando,FL,28.5421109,-81.3790304
419,3,Mansfield,PA,41.805687,-77.0792881
420,3,Orem,UT,40.2971825,-111.694943
421,3,Bellevue,WA,47.614421899999996,-122.1923372
422,3,San Jose,CA,37.3361905,-121.890583
423,3,Stafford,TX,29.616067100000002,-95.55772209999999
424,3,Richmond,VA,37.53850870000001,-77.43428
425,3,De Pere,WI,44.448747600000004,-88.06010859999999
426,3,Redwood City,CA,37.4863239,-122.232523
427,3,West Columbia,SC,33.993486700000005,-81.0739826
428,3,New Albany,OH,40.0811745,-82.8087864
429,3,Baltimore,MD,39.2908816,-76.610759
430,3,Philadelphia,PA,39.9527237,-75.16352619999999
431,3,Fort Washington,PA,40.139971700000004,-75.210095
432,3,Oak Brook,IL,41.8328085,-87.9289504
433,3,Portland,OR,45.5202471,-122.6741949
434,3,Fort Lauderdale,FL,26.122308399999998,-80.14337859999999
435,3,Stanford,CA,37.426540700000004,-122.1702926
436,3,Pompano Beach,FL,26.2378597,-80.1247667
437,3,Sacramento,CA,38.5810606,-121.49389509999999
438,3,Southfield,MI,42.473368900000004,-83.2218731
439,3,Boca Raton,FL,26.3586885,-80.08309840000001
440,3,Floresville,TX,29.1335781,-98.1561192
441,3,Milwaukee,WI,43.0349931,-87.92249699999999
442,3,Queens,NY,40.74982429999999,-73.7976337
443,3,Mason,OH,39.3600586,-84.309939
444,3,Fairfax,VA,38.8462236,-77.3063733
445,3,Salt Lake City,UT,40.759619799999996,-111.88679750000001
446,3,St. Louis,MO,38.6264178,-90.1998378
447,3,Tampa,FL,27.947759499999997,-82.458444
448,3,Rockville,MD,39.0840054,-77.15275729999999
449,3,Indianapolis,IN,39.779801,-86.1394092
450,3,Junior,WV,38.9787148,-79.949519
451,3,Austin,TX,30.2711286,-97.7436995
452,3,Arlington,VA,38.890396100000004,-77.0841585
453,3,Red Bank,NJ,40.347054299999996,-74.0643065
454,3,Irvine,CA,33.685696899999996,-117.82598190000002
455,3,Battle Creek,MI,42.319254799999996,-85.18242690000001
456,3,Harrisburg,PA,40.266310700000005,-76.8861122
457,3,Malvern,AR,34.362314899999994,-92.8129463
458,3,Columbus,OH,39.9622601,-83.00070649999999
459,3,Petaluma,CA,38.2325829,-122.63646499999999
460,3,Georgetown,TX,30.6665525,-97.67796379999999
461,3,Oshkosh,WI,44.0206919,-88.54085740000001
462,3,Chandler,AZ,33.3061605,-111.84125
463,3,Detroit,MI,42.331550899999996,-83.04664029999999
464,3,Wilmington,DE,39.7459468,-75.546589
465,3,Rockland,MA,42.1306563,-70.9161551
466,3,Dallas,TX,32.7762719,-96.7968559
467,3,Shalimar,FL,30.4457544,-86.5791189
468,3,Lewiston,ME,44.100351,-70.2147764
469,3,Charleston,SC,32.7876012,-79.9402728
470,3,Burbank,CA,34.181648200000005,-118.3258554
471,3,Columbia,MO,38.951883,-92.3337366
472,3,Ontario,CA,34.065846,-117.6484304
473,3,Miami,FL,25.7741728,-80.19362
474,3,Miramar,FL,25.987313699999998,-80.23227059999999
475,3,Denver,CO,39.7392364,-104.98486229999999
476,3,Aberdeen Proving Ground,MD,39.4679716,-76.1324354
477,3,Wilson,NC,35.7212689,-77.91553950000001
478,3,Santa Fe,NM,35.68699960000001,-105.9377997
479,3,Madison,WI,43.074760999999995,-89.3837613
480,3,Rochester,MI,42.680588,-83.1338214
481,3,Plano,TX,33.013676399999994,-96.6925096
482,3,Clearlake,CA,38.9582307,-122.62637279999998
483,3,Mayport,FL,30.393336600000005,-81.43059240000001
484,3,Burlington,VT,44.4761601,-73.212906
485,3,Wayne,NJ,40.9491723,-74.2376802
486,3,Buffalo,NY,42.8867166,-78.87839220000001
487,3,Raleigh,NC,35.7803977,-78.63909890000001
488,3,Armonk,NY,41.1330485,-73.71262370000001
489,3,Concord,NC,35.40941779999999,-80.5800049
490,3,North Kansas City,MO,39.1432057,-94.5733988
491,3,Toledo,OH,41.6529143,-83.5378173
492,3,Durham,NC,35.996653,-78.90180529999999
493,3,Mayfield Village,OH,41.541872,-81.439452
494,3,Johnston,IA,41.6731523,-93.6973395
495,3,Webster,NY,43.2362833,-77.4525046
496,3,Houston,TX,29.7589382,-95.36769740000001
497,3,Hoboken,NJ,40.7433066,-74.0323752
498,3,Newark,NJ,40.735657,-74.1723667
499,3,Newark,CA,37.5296593,-122.0402399
500,3,Warren,MI,42.4932575,-83.0062746
501,3,Little Rock,AR,34.7464809,-92.2895948
502,3,Sandy,UT,40.5664878,-111.838904
503,3,Norwell,MA,42.1617681,-70.7939307
504,3,Williston,VT,44.4374044,-73.0689621
505,3,Phoenix,AZ,33.448436699999995,-112.07414170000001
506,3,Spartanburg,SC,34.949800700000004,-81.9320157
507,3,Pensacola,FL,30.421309,-87.2169149
508,3,Lakeland,FL,28.039465399999997,-81.9498042
509,3,Santa Barbara,CA,34.4221319,-119.7026673
510,3,Oxford,OH,39.51030479999999,-84.7420519
511,3,Minneapolis,MN,44.9772995,-93.2654692
512,3,Greensboro,NC,36.0726355,-79.79197540000001
513,3,Andover,MA,42.65717,-71.1408776
514,3,Saint Albans,WV,38.3789601,-81.8119303
515,3,Bethesda,MD,38.981984499999996,-77.1242341
516,3,Richland,WA,46.28042979999999,-119.2752055
517,3,East Providence,RI,41.813711600000005,-71.37005450000001
518,3,Champaign,IL,40.116420500000004,-88.2433829
519,3,Plantation,FL,26.1275862,-80.23310359999999
520,3,Fort Worth,TX,32.753177,-97.3327459
521,3,Dublin,OH,40.0992294,-83.11407709999999
522,3,Yardley,PA,40.245664,-74.84599720000001
523,3,Paoli,PA,40.0417847,-75.4838685
524,3,Breckenridge,CO,39.482912400000004,-106.04654860000001
525,3,Tinton Falls,NJ,40.2890734,-74.09279670000001
526,3,Rensselaer,NY,42.6425795,-73.742898
527,3,Asheville,NC,35.600949799999995,-82.5540161
528,3,Fayetteville,AR,36.0625843,-94.1574328
529,3,Duluth,GA,34.0028569,-84.14410459999999
530,3,King of Prussia,PA,40.0908111,-75.3832484
531,3,Costa Mesa,CA,33.6633386,-117.90331699999999
532,3,North Quincy,MA,42.277043299999995,-71.02032679999999
533,3,Rochester,NY,43.157284999999995,-77.615214
534,3,Escondido,CA,33.1216751,-117.08148490000002
535,3,Newark,DE,39.6852191,-75.75082890000002
536,3,Flint,MI,43.016169299999994,-83.6900211
537,3,West Chester,PA,39.9597213,-75.6059638
538,3,Euclid,OH,41.5931049,-81.5267873
539,3,Oahu Island,HI,21.4834956,-158.0364039
540,3,Enid,OK,36.3967623,-97.87913409999999
541,3,Walnut Creek,CA,37.9020731,-122.0618702
542,3,Lansing,MI,42.73377120000001,-84.5553805
543,3,Pleasanton,CA,37.6624312,-121.8746789
544,3,Rosslyn,VA,38.895979100000005,-77.0709087
545,3,Mayfield,OH,41.541872,-81.439452
546,3,Albuquerque,NM,35.0841034,-106.6509851
547,3,Nashua,NH,42.7653662,-71.467566
548,3,Arlington County,VA,38.8769326,-77.0893094
549,3,Horsham,PA,40.1784422,-75.1285061
550,3,Fort Walton Beach,FL,30.405755199999998,-86.618842
551,3,Brookfield,CT,41.48259470000001,-73.4095652
552,3,Ithaca,NY,42.4396039,-76.49680190000001
553,3,West Chester,OH,40.2336795,-81.3442776
554,3,Santa Clarita,CA,34.3916641,-118.54258600000001
555,3,Anchorage,AK,61.2163129,-149.89485200000001
556,3,Venice,CA,33.995044,-118.4668875
557,3,Lynchburg,VA,37.4137536,-79.1422464
558,3,Deerfield,IL,42.171136499999996,-87.8445119
559,3,Nashville,TN,36.1622296,-86.7743531
560,3,Charlotte,NC,35.227208600000004,-80.84308270000001
561,3,Newport Beach,CA,33.6170092,-117.92944009999998
562,3,Manhattan,NY,40.7896239,-73.9598939
563,3,West Palm Beach,FL,26.715364,-80.05329420000001
564,3,Des Moines,IA,41.591032299999995,-93.6046655
565,3,Gainesville,FL,29.6519684,-82.3249846
566,3,San Juan,PR,18.465298999999998,-66.11666600000001
567,3,Henrico,VA,37.4957023,-77.335257
568,3,Hanover,NH,43.703621999999996,-72.288666
569,3,Johnston,RI,41.8310404,-71.54121009999999
570,3,Ferdinand,IN,38.223944,-86.8622155
571,3,Research Triangle Park,NC,35.90569779999999,-78.8748242
572,3,Maitland,FL,28.6274723,-81.3656392
573,3,Colorado Springs,CO,38.8339578,-104.8253485
574,3,Mount Pleasant,SC,32.794065100000005,-79.86258509999999
575,3,Herndon,VA,38.969531599999996,-77.3859479
576,3,South Jordan,UT,40.5621704,-111.929658
577,3,Memphis,TN,35.1490215,-90.0516285
578,3,Mesa,AZ,33.4151117,-111.83147920000002
579,3,Reston,VA,38.9583737,-77.35798050000001
580,3,Princeton,NJ,40.3492744,-74.6592958
581,3,Austell,GA,33.8126059,-84.6343783
582,3,San Antonio,TX,29.424600199999997,-98.4951405
583,3,Ronkonkoma,NY,40.8153761,-73.11233299999999
584,3,Westlake,TX,32.991226,-97.19437009999999
585,3,Birmingham,AL,33.5206824,-86.80243259999999
586,3,Eden Prairie,MN,44.8546856,-93.470786
587,3,Lake Mary,FL,28.756618,-81.3388838
588,3,Woonsocket,RI,42.0028761,-71.5147839
589,3,Shrewsbury,MA,42.283828,-71.7172866
590,3,Stamford,CT,41.0534302,-73.53873409999999
591,3,Clearwater,FL,27.9658533,-82.8001026
592,3,Anaheim,CA,33.8347516,-117.911732
593,3,Woodlawn,MD,39.301516,-76.745956
594,3,Henderson,NV,36.0301134,-114.98261940000002
595,3,West Barnstable,MA,41.705664399999996,-70.37446870000001
596,3,San Mateo,CA,37.496904,-122.33305729999998
597,3,McLean,VA,38.9342888,-77.1776327
598,3,Edison,NJ,40.5382375,-74.39451729999999
599,3,Mount Pleasant,WI,42.7292465,-87.851473
600,3,Las Vegas,NV,36.1672559,-115.1485163
601,3,Alpharetta,GA,34.0709576,-84.2747329
602,3,Knoxville,TN,35.960394799999996,-83.92102609999999
603,3,Provo,UT,40.233843799999995,-111.6585337
604,3,Monroe,WI,42.6018298,-89.6392396
605,3,Camden County,NJ,39.8014709,-74.968553
606,3,Camp Smith,HI,21.386588800000002,-157.9054991
607,3,Westborough,MA,42.269430799999995,-71.6129907
608,3,Oakbrook Terrace,IL,41.8500302,-87.9645077
609,3,Albany,NY,42.6511674,-73.754968
610,3,Williamsville,NY,42.9637836,-78.73772579999999
611,3,Dearborn,MI,42.3222599,-83.1763145
612,3,Daytona Beach,FL,29.2108147,-81.02283309999999
613,3,Portland,ME,43.6610277,-70.25485959999999
614,3,Victor,NY,42.9803802,-77.42723829999998
615,3,Melbourne,FL,28.106471000000003,-80.63715129999999
616,3,Ann Arbor,MI,42.268156899999994,-83.7312291
617,3,Cranbury,NJ,40.3099385,-74.51772240000001
618,3,Chico,CA,39.728494500000004,-121.8374777
619,3,South San Francisco,CA,37.653540299999996,-122.4168664
620,3,Hartford,CT,41.764582,-72.6908547
621,3,Quincy,MA,42.25287720000001,-71.0022705
622,3,Cleveland,OH,41.5051613,-81.6934446
623,3,North Wales,PA,40.2109404,-75.2782317
624,3,Erie,PA,42.129471200000005,-80.0852695
625,3,Linthicum Heights,MD,39.2039094,-76.6597094
626,3,Oakland,CA,37.804455700000005,-122.27135630000001
627,3,Oroville,CA,39.513775200000005,-121.55635900000001
628,3,Libby,MT,48.3882861,-115.55599879999998
629,3,Italy,TX,32.1840381,-96.88471940000001
630,3,Lehi,UT,40.3880902,-111.8491619
631,3,Sterling,VA,39.001619399999996,-77.40320109999999
632,3,Duluth,MN,46.77293220000001,-92.1251218
633,3,Diamondhead,MS,30.3847131,-89.3688705
634,3,Salem,OR,44.9391565,-123.033121
635,3,Tempe,AZ,33.4255056,-111.9400125
636,3,Kingsport,TN,36.550238,-82.55942929999999
637,3,Ada,MI,42.9547136,-85.48795229999999
638,3,Lakewood,CO,39.6246085,-105.084204
639,3,Jacksonville,FL,30.3321838,-81.655651
640,3,Charlottesville,VA,38.029306,-78.4766781
641,3,Morgan Hill,CA,37.130408,-121.65449740000001
642,3,Thorndale,PA,39.997333000000005,-75.7502087
643,3,Waterford,MI,42.7022527,-83.40271800000001
644,3,Orange,CA,33.750037799999994,-117.87049309999999
645,3,Montgomery,AL,32.3669656,-86.3006485
646,3,Jersey City,NJ,40.7281575,-74.0776417
647,3,Jackson,WY,43.479965,-110.76181499999998
648,3,Chantilly,VA,38.8941543,-77.4311513
649,3,West Sacramento,CA,38.5804609,-121.53023400000001
650,3,Brentwood,TN,36.032568700000006,-86.7825235
651,3,Louisville,KY,38.254237599999996,-85.759407
652,3,Highland,CA,34.1283442,-117.2086513
653,3,Prairie du Sac,WI,43.28693,-89.72400999999999
654,3,Waipahu,HI,21.3866667,-158.009166
655,3,Commerce,GA,34.203996999999994,-83.4571058
656,3,Westerville,OH,40.126139,-82.9295287
657,3,Columbia,MD,39.1939196,-76.8747723
658,3,Fort Sam Houston,TX,29.462353600000004,-98.4320524
659,3,Orangeburg,SC,33.4918203,-80.8556476
660,3,Hershey,PA,40.2854881,-76.65060009999999
661,3,California City,CA,35.125801,-117.98590379999999
662,3,Hicksville,NY,40.7684331,-73.5251253
663,3,Blacksburg,VA,37.2296566,-80.4136767
664,3,Lewisville,TX,33.046233,-96.994174
665,3,Holyoke,MA,42.2071434,-72.60765
666,3,Fresno,CA,36.739442100000005,-119.7848307
667,3,Caledonia,MI,42.789119299999996,-85.5163391
668,3,Springfield,MO,37.2166779,-93.2920373
669,3,Rome,GA,34.257038,-85.16467259999999
670,3,Yuma,AZ,32.6926588,-114.6276157
671,3,Cary,NC,35.788289299999995,-78.78120809999999
672,3,Bowie,MD,38.9429659,-76.731234
673,3,Ocala,FL,29.187198600000002,-82.14009229999999
674,3,Kansas City,MO,39.100105,-94.5781416
675,3,Livermore,CA,37.6820583,-121.76805309999999
676,3,Aurora,OH,41.317555,-81.345386
677,3,Novi,MI,42.48059,-83.47549129999999
678,3,Windsor,CT,41.8525984,-72.64370219999999
679,3,Berlin,MD,38.3226154,-75.2176892
680,3,New Bremen,OH,40.4369919,-84.3796729
681,3,Bondurant,IA,41.7005441,-93.46215699999999
682,3,Doral,FL,25.8195424,-80.3553302
683,3,Lake Mills,WI,43.0798032,-88.9125723
684,3,Naperville,IL,41.772869899999996,-88.14792779999999
685,3,La Vergne,TN,36.015617799999994,-86.58193940000001
686,3,Monsey,NY,41.118047999999995,-74.0594037
687,3,Palm Coast,FL,29.5541432,-81.22076729999999
688,3,La Mesa,NM,36.2389231,-105.2116765
689,3,Sparks,NV,39.5404679,-119.74872350000001
690,3,Dallas,OR,44.9189206,-123.3158695
691,3,Corona,CA,33.8752945,-117.56644490000001
692,3,Irwindale,CA,34.128813,-117.93333929999999
693,3,Quincy,IL,39.9356016,-91.40987270000001
694,3,Chino Hills,CA,33.992680299999996,-117.760056
695,3,Lowell,MI,42.933601,-85.3418551
696,3,Chatsworth,CA,34.2595715,-118.6023247
697,3,Pembroke Pines,FL,26.0031465,-80.223937
698,3,Coral Springs,FL,26.271192,-80.27060440000001
699,3,Meridian,ID,43.6086295,-116.392326
700,3,Englewood,CO,39.6482059,-104.98796409999999
701,3,Saint Paul,MN,44.9504037,-93.10150259999999
702,3,Melville,NY,40.7862225,-73.407995
703,3,Bakersfield,CA,35.3738712,-119.01946389999999
704,3,Morgantown,WV,39.629680900000004,-79.9559437
705,3,San Francisco Bay Area,CA,37.7884969,-122.3558473
706,3,Miami Lakes,FL,25.9087056,-80.3086619
707,3,Long Island City,NY,40.7415095,-73.9569751
708,3,Trenton,NJ,40.2170575,-74.7429463
709,3,Bedford Heights,OH,41.4143826,-81.50611459999999
710,3,Camarillo,CA,34.217637100000005,-119.03835409999999
711,3,Manchester,NH,42.995639700000005,-71.4547891
712,3,Paramus,NJ,40.945291100000006,-74.07358990000002
713,3,Fairfield,OH,39.345895299999995,-84.56050309999999
714,3,Foster City,CA,37.560033600000004,-122.26885220000001
715,3,Missouri City,MO,39.2408369,-94.2880031
716,3,Norfolk,VA,36.846292299999995,-76.2929252
717,3,Livonia,MI,42.36837,-83.3527097
718,3,Montgomery County,MD,39.140626700000006,-77.20756120000001
719,3,Opportunity,WA,47.6571257,-117.2397875
720,3,Bentonville,AR,36.372853799999994,-94.2088172
721,3,Creve Coeur,MO,38.661300700000005,-90.44236529999999
722,3,Menlo Park,CA,37.451967100000005,-122.17799270000002
723,3,Titusville,NJ,40.3095516,-74.8804428
724,3,Virginia Beach,VA,36.8529841,-75.9774183
725,3,Tualatin,OR,45.38385460000001,-122.7663518
726,3,Woodbridge,NJ,40.55418,-74.2860008
727,3,Greenwood Village,CO,39.6172101,-104.95081409999999
728,3,Estero,FL,26.4381474,-81.8067537
729,3,Springfield,MA,42.101876399999995,-72.5886727
730,3,Santa Ana,CA,33.7494951,-117.8732213
731,3,Findlay,OH,41.0413873,-83.65039820000001
732,3,Louisville,CO,39.977763,-105.13192959999999
733,3,Framingham,MA,42.3095704,-71.4413097
734,3,Torrance,CA,33.835849200000006,-118.34062879999999
735,3,Lexington Park,MD,38.2641725,-76.45310699999999
736,3,San Carlos,CA,37.504936,-122.2618236
737,3,Kirkland,WA,47.6859573,-122.1920249
738,3,Bothell,WA,47.7598697,-122.2068288
739,3,Brooklyn,NY,40.650102399999994,-73.9495829
740,3,Fishers,IN,39.9555928,-86.01387290000001
741,3,Somerville,MA,42.3875968,-71.0994968
742,3,Santa Cruz,CA,37.050096,-121.9905908
743,3,Okemos,MI,42.7220755,-84.42752320000001
744,3,Chesterfield,MO,38.661953000000004,-90.56432579999999
745,3,Conshohocken,PA,40.0792766,-75.3015714
746,3,Thousand Oaks,CA,34.1714271,-118.91058770000001
747,3,Florham Park,NJ,40.787878000000006,-74.38820720000001
748,3,Glen Allen,VA,37.665978100000004,-77.506374
749,3,New Haven,CT,41.3082138,-72.92505179999999
750,3,Greenwich,CT,41.0264862,-73.6284598
751,3,Richfield,MN,44.8766431,-93.2877877
752,3,Santa Clara Valley,CA,39.021575,-84.55512209999999
753,3,Gilbert,AZ,33.3527632,-111.78903729999999
754,3,Rochester,MN,44.02343870000001,-92.46301820000001
755,3,Vienna,VA,38.9013729,-77.2651762
756,3,Alto,WA,46.3865354,-118.1123936
757,3,Livingston,NJ,40.795933500000004,-74.3148713
758,3,Deer Park,TX,29.7052284,-95.1238204
759,3,Augusta,WV,39.2953787,-78.6377912
760,3,Frisco,TX,33.1506744,-96.82361159999999
761,3,Troy,MI,42.6055893,-83.1499304
762,3,Vista,CA,33.2000368,-117.2425355
763,3,Annapolis Junction,MD,38.9786401,-76.492786
764,3,Oak Ridge,TN,36.010356200000004,-84.2696449
765,3,Medford,MA,42.4184296,-71.10616390000001
766,3,Lincoln,NE,40.8088861,-96.70777509999999
767,3,Siloam Springs,AR,36.1881365,-94.5404962
768,3,College Park,MD,38.980666,-76.9369189
769,3,Crystal City,VA,38.8592169,-77.04837579999999
770,3,Modesto,CA,37.6390972,-120.99687820000001
771,3,Palatine,IL,42.110577899999996,-88.0336888
772,3,Maryville,TN,35.7564719,-83.9704593
773,3,Dublin,CA,37.7021521,-121.9357918
774,3,Cedar Rapids,IA,41.9758872,-91.6704053
775,3,Northbrook,IL,42.127531,-87.8318855
776,3,Parsippany,NJ,40.857877200000004,-74.42598659999999
777,3,Culver City,CA,34.021122399999996,-118.3964665
778,3,Spring,TX,31.8160381,-99.51209859999999
779,3,Frederick,MD,39.4142186,-77.4109269
780,3,Acton,MA,42.48509310000001,-71.43284
781,3,Fayetteville,NC,35.052575899999994,-78.878292
782,3,Omaha,NE,41.258745899999994,-95.93837579999999
783,3,Denton,TX,33.1838787,-97.1413417
784,3,Hillsboro,OR,45.5228939,-122.989827
785,3,Springfield,VA,38.78905220000001,-77.1870368
786,3,Fort Belvoir,VA,38.7282122,-77.1509829
787,3,Saratoga Springs,NY,43.08217929999999,-73.7853915
788,3,Fort Meade,MD,39.1047631,-76.74727879999999
789,3,Boise,ID,43.6166163,-116.20088600000001
790,3,Long Beach,CA,33.7690164,-118.191604
791,3,Burlingame,CA,37.5841026,-122.36608249999999
792,3,Appleton,WI,44.26113370000001,-88.40676040000001
793,3,Wickliffe,OH,41.605327,-81.45344899999999
794,3,Laramie,WY,41.311367,-105.591101
795,3,Mount Vernon,WA,48.42004620000001,-122.32642
796,3,Wheeling,WV,40.063961600000006,-80.72091490000001
797,3,Richardson,TX,32.9481789,-96.7297206
798,3,Hagerstown,MD,39.6419219,-77.7202641
799,3,Saint Joseph,MO,39.7686055,-94.8466322
800,3,Holmdel,NJ,40.3451095,-74.1840322
801,3,Milpitas,CA,37.4282724,-121.90662379999999
802,3,Trumbull,CT,41.2428742,-73.20066870000001
803,3,Pittsburgh,PA,40.4416941,-79.99008609999998
804,3,Riverwoods,IL,42.167606799999994,-87.89709859999999
805,3,Danbury,CT,41.394816999999996,-73.45401109999999
806,3,Aliso Viejo,CA,33.576137599999996,-117.7258122
807,3,Schaumburg,IL,42.0333608,-88.08340600000001
808,3,North Reading,MA,42.5750939,-71.0786653
809,3,Gwynn Oak,MD,39.3265775,-76.7181765
810,3,Panama City Beach,FL,30.1765914,-85.805386
811,3,Sartell,MN,45.6216319,-94.2069365
812,3,Gallatin,TN,36.3883031,-86.44758979999999
813,3,San Dimas,CA,34.1066756,-117.8067257
814,3,Cupertino,CA,37.3228934,-122.0322895
815,3,Uniontown,OH,40.9730285,-81.4046352
816,3,Minnetonka,MN,44.9127229,-93.499059
817,3,American Fork,UT,40.376895399999995,-111.7957645
818,3,Clayton,MO,38.650435200000004,-90.3362473
819,3,Maplewood,MN,44.953335100000004,-92.9953373
820,3,Bridgewater,NJ,40.5598127,-74.5517146
821,3,University Park,PA,40.808749299999995,-77.8585662
822,3,Vancouver,WA,45.63069539999999,-122.67445570000001
823,3,Centennial,CO,39.6021002,-104.9191467
824,3,The Woodlands,TX,30.173419399999997,-95.50468599999999
825,3,Berkeley,CA,37.8708393,-122.27286389999999
826,3,Ellicott City,MD,39.2673284,-76.7983067
827,3,Ashburn,VA,39.043719200000005,-77.48748990000001
828,3,Deerfield Beach,FL,26.318341999999998,-80.0996306
829,3,Chevy Chase,MD,38.9822473,-77.0881873
830,3,Hanover,MD,39.19288529999999,-76.7241371
831,3,Sarasota,FL,27.3364347,-82.5306527
832,3,San Fernando,CA,34.28497,-118.437652
833,3,Whippany,NJ,40.824544200000005,-74.4170972
834,3,Beaverton,OR,45.4871723,-122.80378
835,3,Wellesley,MA,42.2964859,-71.2925571
836,3,Oklahoma City,OK,35.4729886,-97.5170536
837,3,Jackson,MI,42.2416466,-84.425589
838,3,Saint Petersburg,FL,27.770379600000002,-82.66950849999999
839,3,Basking Ridge,NJ,40.7064088,-74.5492725
840,3,Saint Augustine,FL,29.894695199999997,-81.3145395
841,3,Galway,NY,43.01868579999999,-74.0315162
842,3,Cockeysville,MD,39.4845658,-76.6502845
843,3,Mount Laurel,NJ,39.934002,-74.8909988
844,3,Lexington,MA,42.4473175,-71.2245003
845,3,Weston,CT,41.2021302,-73.3812743
846,3,Cheektowaga,NY,42.908679299999996,-78.74809259999999
847,3,Lindon,UT,40.3432857,-111.7207608
848,3,Miami Beach,FL,25.7929198,-80.1353006
849,3,United,WV,37.9906638,-81.42649870000001
850,3,Davenport,IA,41.5236436,-90.57763680000001
851,3,Davie,FL,26.062866500000002,-80.2331038
852,3,Prineville,OR,44.2998261,-120.834972
853,3,Winston-Salem,NC,36.0998131,-80.2440518
854,3,Dulles,VA,29.456179,-98.66340699999999
855,3,Corvallis,OR,44.5645659,-123.2620435
856,3,Round Rock,TX,30.508235,-97.6788934
857,3,El Segundo,CA,33.917028,-118.4156337
858,3,Marshall,TX,32.5447756,-94.36610040000001
859,3,Blasdell,NY,42.797281,-78.82336600000001
860,3,Secaucus,NJ,40.7899291,-74.0566735
861,3,Lewes,DE,38.7745565,-75.1393498
862,3,Minneapolis,NC,36.099368299999995,-81.98734909999999
863,3,Tysons,VA,38.918592,-77.2314723
864,3,Pierre,SD,44.3683644,-100.35113670000001
865,3,El Paso,TX,31.7754152,-106.464634
866,3,Lanham,MD,38.9670551,-76.8619166
867,3,Pasadena,CA,34.14764520000001,-118.14447790000001
868,3,Blue Ash,OH,39.2320073,-84.3782817
869,3,Jupiter,FL,26.934224600000004,-80.09420870000001
870,3,Eatontown,NJ,40.2962222,-74.0509725
871,3,Wittmann,AZ,33.7733775,-112.5270183
872,3,Riverton,UT,40.5220027,-111.9391003
873,3,Collegeville,PA,40.1856597,-75.451571
874,3,Pardeeville,WI,43.537760799999994,-89.3001174
875,3,Traverse City,MI,44.7606441,-85.61653009999999
876,3,Olive Branch,MS,34.9617605,-89.82953149999999
877,3,Waterloo,IA,42.497969299999994,-92.3329637
878,3,Coppell,TX,32.9552598,-97.0155703
879,3,Springfield,PA,40.5249235,-75.2875281
880,3,Pella,IA,41.4080534,-92.91630909999999
881,3,New Castle,DE,39.66205720000001,-75.5663132
882,3,Agoura Hills,CA,34.147909999999996,-118.76570420000002
883,3,Issaquah,WA,47.5348778,-122.04329740000001
884,3,Peoria,IL,40.6938609,-89.5891008
885,3,Wyoming,MN,45.336355100000006,-92.9971631
886,3,Midland,TX,31.997366200000002,-102.07794820000001
887,3,Cape Canaveral,FL,28.450770000000002,-80.52662
888,3,Elmwood Park,NJ,40.903987799999996,-74.118476
889,3,Belmont,CA,37.51649260000001,-122.29419140000002
890,3,Dallas-Fort Worth,TX,32.735794,-97.229958
891,3,Farmers Branch,TX,32.9265137,-96.89611509999999
892,3,Newport News,VA,37.1061414,-76.50080030000001
893,3,Skillman,NJ,40.4201055,-74.71460490000001
894,3,Lemont,IL,41.6737149,-88.0016263
895,3,Everett,WA,47.9673056,-122.20139979999999
896,3,McKinney,TX,33.197649600000005,-96.6154471
897,3,Owosso,MI,42.9975968,-84.1720541
898,3,Exton,PA,40.0289955,-75.6207651
899,3,Malvern,PA,31.1393439,-85.51910050000001
900,3,Moscow,ID,46.7323875,-117.00016509999999
901,3,Los Lunas,NM,34.8142093,-106.7613067
902,3,Norcross,GA,33.9412127,-84.2135309
903,3,Augusta,GA,33.470971399999996,-81.9748429
904,3,Foxborough,MA,42.065376799999996,-71.2478308
905,3,Honolulu,HI,21.304547,-157.8556764
906,3,Littleton,CO,39.613321,-105.0166498
907,3,Branford,CT,41.2795414,-72.81509890000001
908,3,Scottsdale,AZ,33.4942189,-111.92601840000002
909,3,Mechanicsville,VA,37.6193174,-77.3369627
910,3,Seal Beach,CA,33.7423967,-118.1055926
911,3,Raritan,NJ,40.5695474,-74.6329363
912,3,Sandy Springs,GA,33.92426879999999,-84.37853790000001
913,3,Midland,MI,43.6155825,-84.24721170000001
914,3,Mahwah,NJ,41.0887072,-74.1437552
915,3,Mooresville,NC,35.5848596,-80.81007240000001
916,3,Emeryville,CA,37.8314089,-122.28652659999999
917,3,Pittsfield,MA,42.451302,-73.260018
918,3,Pebble Beach,CA,36.5672414,-121.94421340000001
919,3,Stoughton,MA,42.1250995,-71.1022712
920,3,Santa Rosa,CA,38.4404925,-122.71410490000001
921,3,Tustin,CA,33.7458511,-117.82616599999999
922,3,Los Gatos,CA,37.226611,-121.9746797
923,3,Coraopolis,PA,40.5184013,-80.1667247
924,3,Umatilla,OR,45.9173549,-119.3425179
925,3,Aiken,SC,33.5598586,-81.721952
926,3,Dodgeville,WI,42.9600059,-90.13044609999999
927,3,Fairfax County,VA,38.7690664,-77.30168499999999
928,3,Woburn,MA,42.479261799999996,-71.1522766
929,3,Universal City,CA,34.1412229,-118.35819409999999
930,3,Yonkers,NY,40.9312099,-73.8987469
931,3,Stratford,CT,41.184541499999995,-73.1331651
932,3,Hoffman Estates,IL,42.042663899999994,-88.079871
933,3,Mayfield Heights,OH,41.5192189,-81.45789599999999
934,3,Mansfield,MA,42.0334326,-71.2189405
935,3,Salem,VA,37.293378000000004,-80.05466700000001
936,3,Campbell,CA,37.2870626,-121.94488179999999
937,3,Clearfield,UT,41.1134756,-112.02443819999999
938,3,Cerritos,CA,33.8644291,-118.05393229999999
939,3,Wallops Island,VA,37.8838711,-75.4561666
940,3,Painted Post,NY,42.163959999999996,-77.0937953
941,3,Montreal,WI,46.4280033,-90.2460097
942,3,Schofield Barracks,HI,21.4933652,-158.06518799999998
943,3,Chapin,SC,34.1659795,-81.34982120000001
944,3,Allentown,PA,40.6022059,-75.47127940000001
945,3,Patuxent River,MD,38.8142728,-76.7117773
946,3,Leawood,KS,38.966673,-94.6169012
947,3,Topeka,KS,39.049011,-95.67755600000001
948,3,Egypt,AR,35.8681298,-90.94567509999999
949,3,Walnut,CA,33.708588299999995,-117.79260959999999
950,3,Tyler,TX,32.351260100000005,-95.3010624
951,3,Yakima,WA,46.601557,-120.51084209999999
952,3,Missoula,MT,46.8701049,-113.9952672
953,3,Folsom,CA,38.6779591,-121.17605829999998
954,3,Alameda,CA,37.6090291,-121.899142
955,3,Baton Rouge,LA,30.445959600000002,-91.18738
956,3,Park City,UT,40.646063500000004,-111.4979741
957,3,Pflugerville,TX,30.4393696,-97.62000429999999
958,3,Hunt Valley,MD,39.4922608,-76.6589528
959,3,Dalton,GA,34.769186700000006,-84.9702475
960,3,Carrollton,TX,32.9537349,-96.8902816
961,3,Groton,MA,42.6112242,-71.5745402
962,3,Sioux Falls,SD,43.5499749,-96.700327
963,3,Warminster,PA,40.2045407,-75.1033615
964,3,South Bend,IN,41.68338129999999,-86.2500066
965,3,Grand Rapids,MI,42.963240500000005,-85.66786390000001
966,3,Easton,NY,42.9934104,-73.5523378
967,3,Bellingham,WA,48.754401200000004,-122.47883610000001
968,3,Bowling Green,KY,36.990319899999996,-86.4436018
969,3,Starkey,VA,37.200693,-79.9986485
970,3,Pipestone,MN,44.02700120000001,-96.2566582
971,3,Woodinville,WA,47.75458270000001,-122.1588902
972,3,Markham,IL,41.5936453,-87.6947699
973,3,Golden,CO,39.755542999999996,-105.2210997
974,3,Fort Lee,NJ,40.8509333,-73.9701382
975,3,San Ramon,CA,37.764802100000004,-121.95443870000001
976,3,Malibu,CA,34.035591,-118.689423
977,3,Newtown,CT,41.41347639999999,-73.3086445
978,3,Webster,TX,29.537694399999996,-95.1220967
979,3,Poway,CA,32.9628234,-117.0358646
980,3,Tysons Corner,VA,38.918592,-77.2314723
981,3,Glen Echo,MD,38.969299799999995,-77.1426965
982,3,Novato,CA,38.1061979,-122.56811909999999
983,3,Long Island,NY,40.851496999999995,-73.09942579999999
984,3,Midvale,UT,40.611058899999996,-111.8999353
985,3,Westminster,CO,39.836652799999996,-105.03720459999998
986,3,Cypress,CA,33.8248235,-118.0399368
987,3,Los Altos,CA,37.379062899999994,-122.116578
988,3,Greenbelt,MD,39.004607,-76.8756838
989,3,Copley,OH,41.0989439,-81.6445685
990,3,California,MD,38.300402899999995,-76.5074542
991,3,Brookfield,WI,43.0605671,-88.1064787
992,3,Roanoke,VA,37.270973,-79.94143129999999
993,3,Clemson,SC,34.685074900000004,-82.83641109999999
994,3,Ames,IA,42.026770299999995,-93.6170554
995,3,Foggy Bottom,DC,38.902015000000006,-77.0526041
996,3,East Lansing,MI,42.735541600000005,-84.4852469
997,3,Union City,CA,37.5963232,-122.08162970000001
998,3,Brighton,MA,42.3500971,-71.1564423
999,3,East Setauket,NY,40.9418427,-73.1058559
1000,3,Owings Mills,MD,39.401075299999995,-76.796299
1001,3,Newburyport,MA,42.812591299999994,-70.87727509999999
1002,3,Burlington,MA,42.5048167,-71.1956111
1003,3,La Jolla,CA,32.83259,-117.27168390000001
1004,3,Laurel,MD,39.0992752,-76.8483061
1005,3,Princeton Junction,NJ,40.321632,-74.6194941
1006,3,Dayton,OH,39.758947799999994,-84.1916069
1007,3,Joliet,IL,41.52636029999999,-88.08402120000001
1008,3,Adelphi,MD,39.003066600000004,-76.97210229999999
1009,3,Highlands Ranch,CO,39.5538771,-104.9694264
1010,3,Watertown,MA,42.3709299,-71.1828321
1011,3,Silicon Valley,CA,37.4429964,-122.1545229
1012,3,Vero Beach,FL,27.6387163,-80.39753990000001
1013,3,Winchester,MA,42.452317799999996,-71.13699820000001
1014,3,Lowell,MA,42.633424700000006,-71.3161718
1015,3,Boxborough,MA,42.4934474,-71.51410440000001
1016,3,Billerica,MA,42.558426399999995,-71.268947
1017,3,Fort Collins,CO,40.5508527,-105.0668085
1018,3,Jonesboro,AR,35.8428646,-90.7034522
1019,3,Julia,WV,38.024564399999996,-80.30396280000001
1020,3,East Palo Alto,CA,37.4688273,-122.1410751
1021,3,Davis,CA,38.545379,-121.74458349999999
1022,3,Woodland Hills,CA,34.1684364,-118.6058382
1023,3,Gaithersburg,MD,39.143440600000005,-77.2013705
1024,3,Baytown,TX,29.735504700000003,-94.97742740000001
1025,3,Clifton Park,NY,42.865632500000004,-73.7709535
1026,3,Spokane,WA,47.657193400000004,-117.42351059999999
1027,3,Westbrook,ME,43.6770252,-70.3711617
1028,3,York,NY,42.8616969,-77.9021691
1029,3,Wilmington,MA,42.5464828,-71.17366690000001
1030,3,Newton,MA,42.3370414,-71.2092214
1031,3,Wharton,NJ,40.8931546,-74.58182540000001
1032,3,Northridge,CA,34.2345615,-118.53693159999999
1033,3,Verona,NY,43.138321999999995,-75.57083100000001
1034,3,Sunkist,CA,34.23215379999999,-116.2540453
1035,3,Plainsboro,NJ,40.3334409,-74.60043409999999
1036,1,Singapore,Singapore,1.2904753,103.8520359
1037,1,Jurong,Singapore,1.2596166000000002,103.6704713
1038,1,Remote,Singapore,1.28967,103.85007
1039,1,Outram,Singapore,1.2828694999999999,103.8378603
1040,1,Bugis,Singapore,1.2999533,103.85527809999999
1041,1,Tanjong Pagar,Singapore,1.2766057,103.84577929999999
1042,1,Toa Payoh,Singapore,1.3353906,103.84974140000001
1043,1,Bedok,Singapore,1.3239765,103.930216
1044,1,Central Singapore,Singapore,1.3156186,103.85362559999999
1045,1,Clementi,Singapore,1.3151003,103.7652311
1046,1,Woodlands,Singapore,1.4368969999999999,103.78621600000001
1047,1,Jurong Island,Singapore,1.2596166000000002,103.6704713
1048,1,Little India,Singapore,1.3068427,103.84927359999999
1049,1,Kallang,Singapore,1.310759,103.866262
1050,1,Tuas,Singapore,1.3293722,103.6482364
1051,1,Ang Mo Kio,Singapore,1.3700803,103.8495228
1052,1,Orchard,Singapore,1.3034266,103.831342
1053,1,Pasir Ris,Singapore,1.3730307,103.94925500000001
1054,1,Geylang,Singapore,1.3181862,103.8870563
1055,1,Hougang,Singapore,1.3708011,103.8925443
1056,1,Suntec,Singapore,1.2946918,103.8591583
1057,1,East Coast,Singapore,1.3104653999999998,103.9235132
1058,1,Bukit Timah,Singapore,1.3546901000000002,103.7763724
1059,1,MacPherson,Singapore,1.3262068999999999,103.889507
1060,1,Marina Bay,Singapore,1.275559,103.8548974
1061,1,City Hall,Singapore,1.2930271999999998,103.8526448
1062,1,Queenstown,Singapore,1.2946226,103.8060366
1063,1,Bukit Merah,Singapore,1.2704395,103.8283184
1064,1,Ubi,Singapore,1.3299353999999999,103.8970444
1065,1,Tiong Bahru Estate,Singapore,1.2847973999999998,103.8321489
1066,1,Choa Chu Kang,Singapore,1.3847493,103.7445341
1067,1,Novena,Singapore,1.3205257,103.84388129999999
1068,1,Changi,Singapore,1.3510795,103.9900641
1069,1,Serangoon,Singapore,1.3497611,103.87368409999999
1070,1,West Singapore,Singapore,1.2904753,103.8520359
1071,1,Yishun,Singapore,1.4293839,103.8350282
1072,1,Tampines,Singapore,1.3546528,103.94357120000001
1073,1,North-East Singapore,Singapore,1.2904753,103.8520359
1074,1,Tanglin,Singapore,1.3060443000000002,103.8152804
1075,1,Raffles,Singapore,1.2835417,103.8514602
1076,1,Central Business District,Singapore,1.28967,103.85007
1077,1,Shenton Way,Singapore,1.2752631,103.8483973
1078,1,Remote,Remote,,
1079,2,Remote,Remote,,
1080,3,Remote,Remote,,
1081,4,Remote,Remote,,
1082,1,Other,Other,,
1083,2,Other,Other,,
1084,3,Other,Other,,
1085,4,Other,Other,,
